{
  "type": "FeatureCollection",
  "features": [
    {
      "type": "Feature",
      "properties": {
        "norad_id": 29760,
        "name": "FENGYUN 1C DEB",
        "group": "fengyun-1c-debris",
        "lat": 33.8734868048909,
        "lon": -26.59556493467497,
        "alt_km": 954.973098761121,
        "timestamp": "2025-12-02T21:34:01.542238+00:00",
        "meta_object_name": "FENGYUN 1C DEB",
        "meta_object_id": "1999-025BA",
        "meta_epoch": "2025-12-02T11:10:09.568992",
        "meta_mean_motion": 14.08277946,
        "meta_eccentricity": 0.0130333,
        "meta_inclination": 98.7624,
        "meta_ra_of_asc_node": 338.9265,
        "meta_arg_of_pericenter": 202.5855,
        "meta_mean_anomaly": 156.9547,
        "meta_ephemeris_type": 0,
        "meta_classification_type": "U",
        "meta_norad_cat_id": 29760,
        "meta_element_set_no": 999,
        "meta_rev_at_epoch": 96948,
        "meta_bstar": 0.0001835,
        "meta_mean_motion_dot": 2.96e-06,
        "meta_mean_motion_ddot": 0,
        "tle_line1": "1 29760U 99025BA  25336.46538853  .00000296  00000+0  18350-3 0  9996",
        "tle_line2": "2 29760  98.7624 338.9265 0130333 202.5855 156.9547 14.08277946969489"
      },
      "geometry": {
        "type": "Point",
        "coordinates": [
          -26.59556493467497,
          33.8734868048909
        ]
      }
    },
    {
      "type": "Feature",
      "properties": {
        "norad_id": 29762,
        "name": "FENGYUN 1C DEB",
        "group": "fengyun-1c-debris",
        "lat": -34.14280802779064,
        "lon": 134.06733406648456,
        "alt_km": 949.4104843592959,
        "timestamp": "2025-12-02T21:34:01.542249+00:00",
        "meta_object_name": "FENGYUN 1C DEB",
        "meta_object_id": "1999-025BC",
        "meta_epoch": "2025-12-02T12:40:03.710208",
        "meta_mean_motion": 14.22542745,
        "meta_eccentricity": 0.0204661,
        "meta_inclination": 98.5783,
        "meta_ra_of_asc_node": 319.5813,
        "meta_arg_of_pericenter": 5.3393,
        "meta_mean_anomaly": 112.4502,
        "meta_ephemeris_type": 0,
        "meta_classification_type": "U",
        "meta_norad_cat_id": 29762,
        "meta_element_set_no": 999,
        "meta_rev_at_epoch": 97803,
        "meta_bstar": 0.00054658,
        "meta_mean_motion_dot": 1.466e-05,
        "meta_mean_motion_ddot": 0,
        "tle_line1": "1 29762U 99025BC  25336.52782072  .00001466  00000+0  54658-3 0  9990",
        "tle_line2": "2 29762  98.5783 319.5813 0204661   5.3393 112.4502 14.22542745978038"
      },
      "geometry": {
        "type": "Point",
        "coordinates": [
          134.06733406648456,
          -34.14280802779064
        ]
      }
    },
    {
      "type": "Feature",
      "properties": {
        "norad_id": 29763,
        "name": "FENGYUN 1C DEB",
        "group": "fengyun-1c-debris",
        "lat": -60.08127952820152,
        "lon": 121.05359057236569,
        "alt_km": 796.1847127332421,
        "timestamp": "2025-12-02T21:34:01.542259+00:00",
        "meta_object_name": "FENGYUN 1C DEB",
        "meta_object_id": "1999-025BD",
        "meta_epoch": "2025-12-02T12:28:52.917024",
        "meta_mean_motion": 14.07866654,
        "meta_eccentricity": 0.0126943,
        "meta_inclination": 98.7601,
        "meta_ra_of_asc_node": 316.2283,
        "meta_arg_of_pericenter": 209.4155,
        "meta_mean_anomaly": 273.3626,
        "meta_ephemeris_type": 0,
        "meta_classification_type": "U",
        "meta_norad_cat_id": 29763,
        "meta_element_set_no": 999,
        "meta_rev_at_epoch": 96906,
        "meta_bstar": 0.00017782,
        "meta_mean_motion_dot": 2.82e-06,
        "meta_mean_motion_ddot": 0,
        "tle_line1": "1 29763U 99025BD  25336.52005691  .00000282  00000+0  17782-3 0  9998",
        "tle_line2": "2 29763  98.7601 316.2283 0126943 209.4155 273.3626 14.07866654969062"
      },
      "geometry": {
        "type": "Point",
        "coordinates": [
          121.05359057236569,
          -60.08127952820152
        ]
      }
    },
    {
      "type": "Feature",
      "properties": {
        "norad_id": 29765,
        "name": "FENGYUN 1C DEB",
        "group": "fengyun-1c-debris",
        "lat": -34.21984094749632,
        "lon": 1.4614131073368948,
        "alt_km": 931.4865888988925,
        "timestamp": "2025-12-02T21:34:01.542276+00:00",
        "meta_object_name": "FENGYUN 1C DEB",
        "meta_object_id": "1999-025BF",
        "meta_epoch": "2025-12-02T08:05:17.141280",
        "meta_mean_motion": 14.02147322,
        "meta_eccentricity": 0.0059532,
        "meta_inclination": 98.831,
        "meta_ra_of_asc_node": 354.8482,
        "meta_arg_of_pericenter": 121.4399,
        "meta_mean_anomaly": 250.9003,
        "meta_ephemeris_type": 0,
        "meta_classification_type": "U",
        "meta_norad_cat_id": 29765,
        "meta_element_set_no": 999,
        "meta_rev_at_epoch": 96605,
        "meta_bstar": 0.00027846,
        "meta_mean_motion_dot": 3.9e-06,
        "meta_mean_motion_ddot": 0,
        "tle_line1": "1 29765U 99025BF  25336.33700395  .00000390  00000+0  27846-3 0  9994",
        "tle_line2": "2 29765  98.8310 354.8482 0059532 121.4399 250.9003 14.02147322966058"
      },
      "geometry": {
        "type": "Point",
        "coordinates": [
          1.4614131073368948,
          -34.21984094749632
        ]
      }
    },
    {
      "type": "Feature",
      "properties": {
        "norad_id": 29766,
        "name": "FENGYUN 1C DEB",
        "group": "fengyun-1c-debris",
        "lat": -62.35370993329591,
        "lon": -55.96977196131505,
        "alt_km": 810.0652709403139,
        "timestamp": "2025-12-02T21:34:01.542286+00:00",
        "meta_object_name": "FENGYUN 1C DEB",
        "meta_object_id": "1999-025BG",
        "meta_epoch": "2025-12-02T08:50:41.618400",
        "meta_mean_motion": 13.96973642,
        "meta_eccentricity": 0.0147048,
        "meta_inclination": 98.6835,
        "meta_ra_of_asc_node": 286.5668,
        "meta_arg_of_pericenter": 316.995,
        "meta_mean_anomaly": 195.5377,
        "meta_ephemeris_type": 0,
        "meta_classification_type": "U",
        "meta_norad_cat_id": 29766,
        "meta_element_set_no": 999,
        "meta_rev_at_epoch": 95659,
        "meta_bstar": 0.0020021,
        "meta_mean_motion_dot": 3.016e-05,
        "meta_mean_motion_ddot": 0,
        "tle_line1": "1 29766U 99025BG  25336.36853725  .00003016  00000+0  20021-2 0  9999",
        "tle_line2": "2 29766  98.6835 286.5668 0147048 316.9950 195.5377 13.96973642956590"
      },
      "geometry": {
        "type": "Point",
        "coordinates": [
          -55.96977196131505,
          -62.35370993329591
        ]
      }
    },
    {
      "type": "Feature",
      "properties": {
        "norad_id": 29767,
        "name": "FENGYUN 1C DEB",
        "group": "fengyun-1c-debris",
        "lat": -35.955531583245296,
        "lon": -47.45227486575073,
        "alt_km": 1024.026197211013,
        "timestamp": "2025-12-02T21:34:01.542296+00:00",
        "meta_object_name": "FENGYUN 1C DEB",
        "meta_object_id": "1999-025BH",
        "meta_epoch": "2025-12-02T10:19:59.011104",
        "meta_mean_motion": 14.0319019,
        "meta_eccentricity": 0.0333026,
        "meta_inclination": 98.198,
        "meta_ra_of_asc_node": 306.1228,
        "meta_arg_of_pericenter": 90.5488,
        "meta_mean_anomaly": 33.1216,
        "meta_ephemeris_type": 0,
        "meta_classification_type": "U",
        "meta_norad_cat_id": 29767,
        "meta_element_set_no": 999,
        "meta_rev_at_epoch": 95455,
        "meta_bstar": 0.0020888,
        "meta_mean_motion_dot": 5.288e-05,
        "meta_mean_motion_ddot": 0,
        "tle_line1": "1 29767U 99025BH  25336.43054411  .00005288  00000+0  20888-2 0  9997",
        "tle_line2": "2 29767  98.1980 306.1228 0333026  90.5488  33.1216 14.03190190954553"
      },
      "geometry": {
        "type": "Point",
        "coordinates": [
          -47.45227486575073,
          -35.955531583245296
        ]
      }
    },
    {
      "type": "Feature",
      "properties": {
        "norad_id": 29769,
        "name": "FENGYUN 1C DEB",
        "group": "fengyun-1c-debris",
        "lat": 15.793251049939453,
        "lon": 31.403777172730802,
        "alt_km": 901.3853609645212,
        "timestamp": "2025-12-02T21:34:01.542306+00:00",
        "meta_object_name": "FENGYUN 1C DEB",
        "meta_object_id": "1999-025BK",
        "meta_epoch": "2025-12-02T02:48:07.219872",
        "meta_mean_motion": 14.13435432,
        "meta_eccentricity": 0.00941733,
        "meta_inclination": 99.1076,
        "meta_ra_of_asc_node": 33.2085,
        "meta_arg_of_pericenter": 159.9688,
        "meta_mean_anomaly": 200.522,
        "meta_ephemeris_type": 0,
        "meta_classification_type": "U",
        "meta_norad_cat_id": 29769,
        "meta_element_set_no": 999,
        "meta_rev_at_epoch": 96531,
        "meta_bstar": 0.001655454,
        "meta_mean_motion_dot": 3.202e-05,
        "meta_mean_motion_ddot": 0,
        "tle_line1": "1 29769U 99025BK  25336.11675023  .00003202  00000+0  16555-2 0  9992",
        "tle_line2": "2 29769  99.1076  33.2085 0094173 159.9688 200.5220 14.13435432965313"
      },
      "geometry": {
        "type": "Point",
        "coordinates": [
          31.403777172730802,
          15.793251049939453
        ]
      }
    }
  ]
}